OBJECT_NAME,OBJECT_ID,EPOCH,MEAN_MOTION,ECCENTRICITY,INCLINATION,RA_OF_ASC_NODE,ARG_OF_PERICENTER,MEAN_ANOMALY,EPHEMERIS_TYPE,CLASSIFICATION_TYPE,NORAD_CAT_ID,ELEMENT_SET_NO,REV_AT_EPOCH,BSTAR,MEAN_MOTION_DOT,MEAN_MOTION_DDOT
LEMUR-2-ROUNDTRIPPER,2025-009DG,2026-07-11T18:38:43.358208,15.04195859,.00043784,97.7246,275.4244,71.1982,288.9719,0,U,62711,999,8132,.39714459E-3,.5456E-4,0
LEMUR-2-MYNAMEISJEFF,2025-009DH,2026-07-11T18:36:30.872448,15.04187846,.00037694,97.7298,275.8188,105.2846,254.8796,0,U,62712,999,8132,.38944523E-3,.5347E-4,0
LEMUR-2-LEIA-PHILIP,2025-052AN,2026-07-11T22:17:51.670464,14.97388264,.00050987,97.6813,84.4608,126.4901,233.6792,0,U,63246,999,7237,.74407554E-4,.807E-5,0
LEMUR-2-LIA-MARTIN,2025-052AQ,2026-07-11T15:47:15.253152,14.98011715,.00054064,97.6875,84.7066,98.5199,261.6637,0,U,63248,999,7234,.27062016E-3,.3139E-4,0
LEMUR-2-DELOITTE-1,2025-052BB,2026-07-11T16:54:27.985248,14.97765900,.00025566,97.6886,85.0832,69.2852,290.8644,0,U,63259,999,7236,.19413927E-3,.222E-4,0
LEMUR-2-EMERSONROSE,2025-052BD,2026-07-11T15:43:49.963296,14.99270270,.00028124,97.6885,85.6401,66.1030,294.0487,0,U,63261,999,7240,.25458225E-3,.3048E-4,0
LEMUR-2-MARACHE-FRAN,2025-052BE,2026-07-11T16:20:01.347360,15.00302061,.00048145,97.6854,86.0285,268.4363,91.6309,0,U,63262,999,7243,.16161337E-3,.1966E-4,0
LEMUR-2-THEFALCONER,2025-052BG,2026-07-11T22:26:15.264096,14.97555399,.00004741,97.6847,84.9044,3.9992,356.1234,0,U,63264,999,7239,.13628316E-3,.1533E-4,0
LEMUR-2-UNTITLED-SC,2025-061A,2026-07-11T21:07:57.540576,15.13633127,.00188645,97.5648,168.0663,174.3063,185.8386,0,U,63351,999,7132,.13422853E-3,.2354E-4,0
LEMUR-2-ESPERANZA,2025-061B,2026-07-11T20:32:46.534560,15.13740291,.00184794,97.5655,168.1412,173.5696,186.5776,0,U,63352,999,7132,.10385192E-3,.1811E-4,0
LEMUR-2-KREMPEL-BRO2,2025-061C,2026-07-11T21:01:26.882112,15.14165574,.00196576,97.5701,168.7260,166.3368,193.8400,0,U,63353,999,7134,.13630593E-3,.2429E-4,0
LEMUR-2-THERMORAPTOR,2025-061D,2026-07-11T22:08:52.094688,15.14249085,.00194269,97.5705,168.8529,165.0621,195.1189,0,U,63354,999,7135,.11069784E-3,.1965E-4,0
LEMUR-2-NEUROSPICY,2025-061E,2026-07-11T19:50:11.235552,15.14366383,.00171151,97.5633,168.3643,168.1718,191.9919,0,U,63355,999,7134,.12870245E-3,.2301E-4,0
LEMUR-2-TILLINFINITY,2025-061F,2026-07-11T20:27:17.656416,15.14950710,.00187214,97.5619,168.6977,156.9449,203.2627,0,U,63356,999,7137,.10879834E-3,.1969E-4,0
LEMUR-2-KREMPEL-BRO1,2025-061G,2026-07-11T19:53:38.033952,15.14757547,.00193037,97.5620,168.5836,158.3242,201.8812,0,U,63357,999,7136,.12393531E-3,.224E-4,0
LEMUR-2-LANGER2SPACE,2025-061H,2026-07-11T11:08:03.117408,15.14450351,.00170352,97.5624,168.0248,167.8120,192.3528,0,U,63358,999,7129,.124128E-3,.2222E-4,0
LEMUR-2-BALTO,2025-052BH,2026-07-11T22:21:48.807360,15.00345942,.00052838,97.6934,86.2615,341.2024,18.9004,0,U,63395,999,7247,.24849275E-3,.3059E-4,0
LEMUR-2-KRISH,2025-135AK,2026-07-11T19:36:33.699744,14.96434298,.00016273,97.7770,307.5283,96.8966,263.2441,0,U,64561,999,5760,.23929928E-3,.2656E-4,0
LEMUR-2-HUBBLE-4,2025-135AP,2026-07-11T20:36:29.353248,14.93679245,.00024156,97.7716,306.4778,171.5660,188.5601,0,U,64565,999,5755,.11146163E-3,.1122E-4,0
LEMUR-2-SEJONG-2,2025-135BL,2026-07-11T21:44:36.512160,14.96896832,.00037097,97.7702,307.7628,234.1005,125.9873,0,U,64586,999,5764,.19470149E-3,.2176E-4,0
LEMUR-2-HUBBLE-5,2025-135BT,2026-07-11T20:50:54.647520,14.94207446,.00041679,97.7737,307.1531,248.9556,111.1218,0,U,64840,999,5759,.1146691E-3,.1172E-4,0
LEMUR-2-KARENDARRELL,2025-135BU,2026-07-11T22:17:29.485536,15.00470423,.00120732,97.7707,309.1021,114.2075,246.0412,0,U,64841,999,5772,.35628938E-3,.4432E-4,0
LEMUR-2-LUCILLE-ROSE,2025-135BV,2026-07-11T20:03:12.003840,15.00464612,.00144668,97.7712,309.0456,199.4062,160.6612,0,U,65403,999,5233,.3073791E-3,.3816E-4,0
LEMUR-2-AFFIE-WAUWIE,2025-248C,2026-07-11T10:43:59.347488,15.28146061,.00086364,45.3896,343.4521,232.3245,127.6861,0,U,66295,999,3830,.45936216E-3,.12568E-3,0
OTTER SDM,2025-276N,2026-07-11T22:30:02.153088,15.20033189,.00042281,97.4210,266.0056,269.4972,90.5779,0,U,66678,999,3417,.1905854E-3,.4041E-4,0
LEMUR-2-STAS-GORBUK,2025-276W,2026-07-11T18:15:12.905856,15.19636638,.00034497,97.4242,265.8836,265.6939,94.3901,0,U,66686,999,3414,.1630158E-3,.3406E-4,0
LEMUR-2-TEODOR,2025-276DG,2026-07-11T17:12:59.330304,15.21313893,.0002273,97.4147,266.1085,90.9117,269.2380,0,U,66768,999,3417,.14383666E-3,.3149E-4,0
LEMUR-2-LAILA,2025-276DQ,2026-07-11T18:04:56.882496,15.21539973,.00029275,97.4172,266.2807,99.4430,260.7137,0,U,66776,999,3418,.16366293E-3,.3617E-4,0
LEMUR-2-CELIJO-SB-PK,2025-276DW,2026-07-11T17:12:00.870336,15.00264436,.00071702,97.5201,262.6848,72.7067,287.4941,0,U,66781,999,2630,.27783604E-3,.3423E-4,0
